NORAD_CAT_ID,OBJECT_NAME,OBJECT_TYPE,EPOCH,MEAN_MOTION,ECCENTRICITY,INCLINATION,RA_OF_ASC_NODE,ARG_OF_PERICENTER,MEAN_ANOMALY,BSTAR,MEAN_MOTION_DOT,MEAN_MOTION_DDOT,TLE_LINE0,TLE_LINE1,TLE_LINE2,SEMIMAJOR_AXIS,PERIOD,APOGEE,PERIGEE,DECAYED
55276.0,STARLINK-5261,PAYLOAD,2023-10-10 18:33:40,14.9832995,0.0002902,70.0001,85.6759,270.6625,89.4201,3.9557e-06,-4.6e-07,0.0,0 STARLINK-5261,1 55276U 23010H   23283.77338865 -.00000046  00000-0  39557-5 0  9991,2 55276  70.0001  85.6759 0002902 270.6625  89.4201 14.98329950 41016,6950.193,96.107,574.075,570.041,0.0
55276.0,STARLINK-5261,PAYLOAD,2023-10-10 20:09:48,14.98330476,0.0002898,70.0001,85.5075,270.9079,89.1748,9.3439e-06,1.9e-07,0.0,0 STARLINK-5261,1 55276U 23010H   23283.84014813  .00000019  00000-0  93439-5 0  9991,2 55276  70.0001  85.5075 0002898 270.9079  89.1748 14.98330476 41328,6950.191,96.107,574.071,570.042,0.0
55276.0,STARLINK-5261,PAYLOAD,2023-10-11 13:47:17,14.98329082,0.0002792,70.0004,83.656,269.3101,90.7738,-5.7662e-05,-7.81e-06,0.0,0 STARLINK-5261,1 55276U 23010H   23284.57451069 -.00000781  00000-0 -57662-4 0  9995,2 55276  70.0004  83.6560 0002792 269.3101  90.7738 14.98329082 41430,6950.196,96.107,574.001,570.12,0.0
55276.0,STARLINK-5261,PAYLOAD,2023-10-11 18:35:41,14.98327931,0.0002799,70.0006,83.151,268.4104,91.6735,-6.0443e-05,-8.14e-06,0.0,0 STARLINK-5261,1 55276U 23010H   23284.77479148 -.00000814  00000-0 -60443-4 0  9993,2 55276  70.0006  83.1510 0002799 268.4104  91.6735 14.98327931 41160,6950.199,96.107,574.01,570.119,0.0
55276.0,STARLINK-5261,PAYLOAD,2023-10-12 13:49:18,14.98328106,0.0002954,70.0004,81.1306,269.9031,90.1789,-1.5036e-05,-2.72e-06,0.0,0 STARLINK-5261,1 55276U 23010H   23285.57591042 -.00000272  00000-0 -15036-4 0  9996,2 55276  70.0004  81.1306 0002954 269.9031  90.1789 14.98328106 41581,6950.199,96.107,574.117,570.011,0.0
55276.0,STARLINK-5261,PAYLOAD,2023-10-12 20:13:50,14.98330234,0.0002918,70.0006,80.4579,270.1131,89.9694,1.6209e-05,1e-06,0.0,0 STARLINK-5261,1 55276U 23010H   23285.84294839  .00000100  00000-0  16209-4 0  9991,2 55276  70.0006  80.4579 0002918 270.1131  89.9694 14.98330234 41320,6950.192,96.107,574.085,570.029,0.0
55276.0,STARLINK-5261,PAYLOAD,2023-10-13 13:51:19,14.9832765,0.0002998,70.0004,78.6061,270.6804,89.4012,4.9048e-05,4.92e-06,0.0,0 STARLINK-5261,1 55276U 23010H   23286.57730918  .00000492  00000-0  49048-4 0  9996,2 55276  70.0004  78.6061 0002998 270.6804  89.4012 14.98327650 41735,6950.2,96.107,574.149,569.981,0.0
55276.0,STARLINK-5261,PAYLOAD,2023-10-13 20:15:51,14.98335425,0.0002983,70.0005,77.9328,270.5853,89.4965,9.083e-05,9.91e-06,0.0,0 STARLINK-5261,1 55276U 23010H   23286.84434276  .00000991  00000-0  90830-4 0  9993,2 55276  70.0005  77.9328 0002983 270.5853  89.4965 14.98335425 41478,6950.176,96.107,574.114,569.968,0.0
55276.0,STARLINK-5261,PAYLOAD,2023-10-14 10:41:04,14.98328653,0.000294,70.0008,76.4179,271.0312,89.051,2.6201e-05,2.2e-06,0.0,0 STARLINK-5261,1 55276U 23010H   23287.44518787  .00000220  00000-0  26201-4 0  9996,2 55276  70.0008  76.4179 0002940 271.0312  89.0510 14.98328653 41565,6950.197,96.107,574.105,570.019,0.0
55276.0,STARLINK-5261,PAYLOAD,2023-10-14 13:53:20,14.9833235,0.0002856,70.0005,76.0813,271.7294,88.3538,-6.257e-05,-8.39e-06,0.0,0 STARLINK-5261,1 55276U 23010H   23287.57870798 -.00000839  00000-0 -62570-4 0  9990,2 55276  70.0005  76.0813 0002856 271.7294  88.3538 14.98332350 41881,6950.186,96.107,574.036,570.066,0.0
55276.0,STARLINK-5261,PAYLOAD,2023-10-14 20:17:52,14.98329234,0.0002829,70.0007,75.4082,269.0661,91.0174,9.6543e-06,2.2e-07,0.0,0 STARLINK-5261,1 55276U 23010H   23287.84574795  .00000022  00000-0  96543-5 0  9998,2 55276  70.0007  75.4082 0002829 269.0661  91.0174 14.98329234 41921,6950.195,96.107,574.026,570.094,0.0
55276.0,STARLINK-5261,PAYLOAD,2023-10-15 12:19:13,14.98324803,0.0002797,70.0011,73.726,270.2336,89.8502,3.5653e-06,-5e-07,0.0,0 STARLINK-5261,1 55276U 23010H   23288.51335137 -.00000050  00000-0  35653-5 0  9995,2 55276  70.0011  73.7260 0002797 270.2336  89.8502 14.98324803 41727,6950.209,96.107,574.018,570.13,0.0
55276.0,STARLINK-5261,PAYLOAD,2023-10-15 13:55:21,14.98316092,0.000288,70.0011,73.5577,268.956,91.1269,0.00014063,1.585e-05,0.0,0 STARLINK-5261,1 55276U 23010H   23288.58011359  .00001585  00000-0  14063-3 0  9992,2 55276  70.0011  73.5577 0002880 268.9560  91.1269 14.98316092 42034,6950.236,96.108,574.103,570.099,0.0
55276.0,STARLINK-5261,PAYLOAD,2023-10-15 18:43:45,14.98327618,0.0002886,70.0011,73.0521,275.0198,85.0632,-1.2428e-05,-2.41e-06,0.0,0 STARLINK-5261,1 55276U 23010H   23288.78039034 -.00000241  00000-0 -12428-4 0  9998,2 55276  70.0011  73.0521 0002886 275.0198  85.0632 14.98327618 42065,6950.2,96.107,574.071,570.059,0.0
55276.0,STARLINK-5261,PAYLOAD,2023-10-16 12:21:14,14.98333041,0.000285,70.0012,71.2012,270.8698,89.2135,-4.3314e-05,-6.1e-06,0.0,0 STARLINK-5261,1 55276U 23010H   23289.51474702 -.00000610  00000-0 -43314-4 0  9993,2 55276  70.0012  71.2012 0002850 270.8698  89.2135 14.98333041 41879,6950.183,96.107,574.029,570.068,0.0
55276.0,STARLINK-5261,PAYLOAD,2023-10-16 13:57:22,14.98326924,0.0002813,70.0012,71.0329,270.5898,89.4939,6.8317e-05,7.22e-06,0.0,0 STARLINK-5261,1 55276U 23010H   23289.58150760  .00000722  00000-0  68317-4 0  9997,2 55276  70.0012  71.0329 0002813 270.5898  89.4939 14.98326924 42187,6950.202,96.107,574.022,570.112,0.0
55276.0,STARLINK-5261,PAYLOAD,2023-10-16 17:09:37,14.98370841,0.0003022,70.0013,70.6962,268.3615,91.7198,-0.00068435,-8.258e-05,0.0,0 STARLINK-5261,1 55276U 23010H   23289.71501827 -.00008258  00000-0 -68435-3 0  9990,2 55276  70.0013  70.6962 0003022 268.3615  91.7198 14.98370841 41900,6950.067,96.104,574.032,569.831,0.0
55276.0,STARLINK-5261,PAYLOAD,2023-10-17 12:23:15,14.98327057,0.0002795,70.0017,68.6782,267.6635,92.4205,8.1027e-05,8.74e-06,0.0,0 STARLINK-5261,1 55276U 23010H   23290.51614660  .00000874  00000-0  81027-4 0  9997,2 55276  70.0017  68.6782 0002795 267.6635  92.4205 14.98327057 42023,6950.202,96.107,574.01,570.124,0.0
55276.0,STARLINK-5261,PAYLOAD,2023-10-17 18:47:47,14.98326285,0.0002787,70.0015,68.0043,267.9207,92.1633,7.2695e-05,7.74e-06,0.0,0 STARLINK-5261,1 55276U 23010H   23290.78318781  .00000774  00000-0  72695-4 0  9991,2 55276  70.0015  68.0043 0002787 267.9207  92.1633 14.98326285 42365,6950.204,96.107,574.006,570.132,0.0
55276.0,STARLINK-5261,PAYLOAD,2023-10-18 12:25:16,14.98330527,0.0002842,70.0015,66.153,264.6652,95.4183,-1.8804e-05,-3.17e-06,0.0,0 STARLINK-5261,1 55276U 23010H   23291.51754706 -.00000317  00000-0 -18804-4 0  9991,2 55276  70.0015  66.1530 0002842 264.6652  95.4183 14.98330527 42174,6950.191,96.107,574.032,570.081,0.0
55276.0,STARLINK-5261,PAYLOAD,2023-10-18 15:37:32,14.98330743,0.000292,70.0013,65.8157,270.6165,89.466,-1.0347e-05,-2.16e-06,0.0,0 STARLINK-5261,1 55276U 23010H   23291.65106684 -.00000216  00000-0 -10347-4 0  9994,2 55276  70.0013  65.8157 0002920 270.6165  89.4660 14.98330743 42494,6950.191,96.107,574.085,570.026,0.0
55276.0,STARLINK-5261,PAYLOAD,2023-10-19 12:27:16,14.98335095,0.000294,70.0005,63.6254,271.5359,88.5463,3.5903e-05,3.35e-06,0.0,0 STARLINK-5261,1 55276U 23010H   23292.51894097  .00000335  00000-0  35903-4 0  9997,2 55276  70.0005  63.6254 0002940 271.5359  88.5463 14.98335095 42324,6950.177,96.107,574.085,569.999,0.0
55276.0,STARLINK-5261,PAYLOAD,2023-10-19 18:51:48,14.98340069,0.0002849,70.0004,62.9518,271.1413,88.942,9.8336e-05,1.081e-05,0.0,0 STARLINK-5261,1 55276U 23010H   23292.78597477  .00001081  00000-0  98336-4 0  9996,2 55276  70.0004  62.9518 0002849 271.1413  88.9420 14.98340069 42664,6950.162,96.106,574.007,570.047,0.0
55276.0,STARLINK-5261,PAYLOAD,2023-10-20 10:53:10,14.98323647,0.000303,70.0007,61.2691,270.461,89.6202,-7.6413e-05,-1.004e-05,0.0,0 STARLINK-5261,1 55276U 23010H   23293.45358958 -.00001004  00000-0 -76413-4 0  9999,2 55276  70.0007  61.2691 0003030 270.4610  89.6202 14.98323647 42462,6950.213,96.107,574.183,569.972,0.0
55276.0,STARLINK-5261,PAYLOAD,2023-10-20 22:06:06,14.98326143,0.000296,70.0003,60.0904,271.5464,88.5356,-5.0218e-05,-6.92e-06,0.0,0 STARLINK-5261,1 55276U 23010H   23293.92090835 -.00000692  00000-0 -50218-4 0  9995,2 55276  70.0003  60.0904 0002960 271.5464  88.5356 14.98326143 42835,6950.205,96.107,574.127,570.013,0.0
55276.0,STARLINK-5261,PAYLOAD,2023-10-21 10:55:10,14.98329548,0.0002834,69.9997,58.7428,265.8708,94.2127,-8.3843e-05,-1.093e-05,0.0,0 STARLINK-5261,1 55276U 23010H   23294.45498825 -.00001093  00000-0 -83843-4 0  9991,2 55276  69.9997  58.7428 0002834 265.8708  94.2127 14.98329548 42614,6950.194,96.107,574.029,570.09,0.0
55276.0,STARLINK-5261,PAYLOAD,2023-10-21 18:55:50,14.98333495,0.0002593,70.0016,57.9026,269.5558,90.5304,-2.6978e-05,-4.15e-06,0.0,0 STARLINK-5261,1 55276U 23010H   23294.78878385 -.00000415  00000-0 -26978-4 0  9993,2 55276  70.0016  57.9026 0002593 269.5558  90.5304 14.98333495 42960,6950.182,96.107,573.849,570.245,0.0
55276.0,STARLINK-5261,PAYLOAD,2023-10-22 12:33:20,14.98319167,0.0002605,70.0016,56.0514,267.1124,92.9737,3.7511e-05,3.55e-06,0.0,0 STARLINK-5261,1 55276U 23010H   23295.52315328  .00000355  00000-0  37511-4 0  9995,2 55276  70.0016  56.0514 0002605 267.1124  92.9737 14.98319167 42774,6950.226,96.108,573.902,570.281,0.0
55276.0,STARLINK-5261,PAYLOAD,2023-10-22 14:09:28,14.98321592,0.0002593,70.0018,55.8835,265.7859,94.3004,6.7211e-05,7.09e-06,0.0,0 STARLINK-5261,1 55276U 23010H   23295.58991119  .00000709  00000-0  67211-4 0  9992,2 55276  70.0018  55.8835 0002593 265.7859  94.3004 14.98321592 43087,6950.219,96.108,573.886,570.282,0.0
55276.0,STARLINK-5261,PAYLOAD,2023-10-22 17:21:44,14.98322633,0.0002643,70.0017,55.5471,267.4641,92.6215,7.6683e-05,8.22e-06,0.0,0 STARLINK-5261,1 55276U 23010H   23295.72343112  .00000822  00000-0  76683-4 0  9991,2 55276  70.0017  55.5471 0002643 267.4641  92.6215 14.98322633 43108,6950.216,96.107,573.918,570.244,0.0
